[{"OBJECT_NAME":"LMRST-SAT","OBJECT_ID":"2015-058H","EPOCH":"2026-03-09T17:22:48.893664","MEAN_MOTION":14.89988841,"ECCENTRICITY":0.01310128,"INCLINATION":64.7755,"RA_OF_ASC_NODE":224.0879,"ARG_OF_PERICENTER":97.8444,"MEAN_ANOMALY":263.7563,"EPHEMERIS_TYPE":0,"CLASSIFICATION_TYPE":"U","NORAD_CAT_ID":40971,"ELEMENT_SET_NO":999,"REV_AT_EPOCH":9873,"BSTAR":0.00042420191,"MEAN_MOTION_DOT":4.653e-5,"MEAN_MOTION_DDOT":0},{"OBJECT_NAME":"STARLINK-5147","OBJECT_ID":"2022-125X","EPOCH":"2026-03-09T17:15:08.735904","MEAN_MOTION":15.08860135,"ECCENTRICITY":0.00011902,"INCLINATION":53.2178,"RA_OF_ASC_NODE":214.2234,"ARG_OF_PERICENTER":82.7716,"MEAN_ANOMALY":277.3411,"EPHEMERIS_TYPE":0,"CLASSIFICATION_TYPE":"U","NORAD_CAT_ID":53985,"ELEMENT_SET_NO":999,"REV_AT_EPOCH":18946,"BSTAR":0.00018785314,"MEAN_MOTION_DOT":2.705e-5,"MEAN_MOTION_DDOT":0}]
