LMRST-SAT               
1 40971U 15058H   26068.72417700  .00004653  00000+0  42420-3 0  9992
2 40971  64.7755 224.0879 0131013  97.8444 263.7563 14.89988841 98733
STARLINK-5147           
1 53985U 22125X   26068.71885111  .00002705  00000+0  18785-3 0  9991
2 53985  53.2178 214.2234 0001190  82.7716 277.3411 15.08860135189468
